NUSAT-6 (HYPATIA)       
1 46272U 20061A   23116.95918621  .00023900  00000+0  74892-3 0  9990
2 46272  97.2866 186.8559 0006562  54.0221 306.1620 15.33056223147095
NEMO-HD                 
1 46277U 20061F   23117.05172852  .00005268  00000+0  24559-3 0  9997
2 46277  97.3497 184.9557 0002935 134.4581 319.3729 15.20288156146453
NUSAT-11 (CORA)         
1 46829U 20079C   23117.05442466  .00068103  00000+0  85267-3 0  9990
2 46829  97.1439 188.0928 0005408 219.4477 225.4756 15.59554345138550
NUSAT-15 (KATHERINE)    
1 46830U 20079D   23117.07871539  .00066408  00000+0  84546-3 0  9996
2 46830  97.1577 189.8313 0004272 205.3524 238.9508 15.59124179138560
NUSAT-14 (HEDY)         
1 46831U 20079E   23117.15402215  .00070215  00000+0  83222-3 0  9998
2 46831  97.1527 190.0568 0006162 211.9448 231.8389 15.60983231138619
NUSAT-10 (CAROLINE)     
1 46832U 20079F   23117.18927477  .00031963  00000+0  46037-3 0  9994
2 46832  97.1572 189.0185 0004479 220.7586 193.6459 15.55962340138540
NUSAT-17 (MARY)         
1 46835U 20079J   23117.16424501  .00053383  00000+0  75660-3 0  9999
2 46835  97.1559 188.5540 0004711 240.6316 203.3891 15.56294483138511
NUSAT-18 (VERA)         
1 46836U 20079K   23116.93744646  .00064208  00000+0  85828-3 0  9994
2 46836  97.1553 189.1100 0005525 246.9589 222.8587 15.57824672138529
NUSAT-16 (LISE)         
1 46840U 20079P   23117.10484267  .00064935  00000+0  83635-3 0  9990
2 46840  97.1605 189.6826 0003537 230.4759 217.2396 15.58824658138554
SENTINEL-6              
1 46984U 20086A   23116.68155432 -.00000061  00000+0  00000+0 0  9990
2 46984  66.0478 358.4446 0008054 263.6776  96.3327 12.80930847113481
GAOFEN 12-02            
1 48079U 21026A   23116.79582243  .00001245  00000+0  16908-3 0  9990
2 48079  97.9216 107.8388 0001564  88.0704 272.0696 14.80598209111980
