[{"OBJECT_NAME":"NUSAT-6 (HYPATIA)","OBJECT_ID":"2020-061A","EPOCH":"2023-04-26T23:01:13.688544","MEAN_MOTION":15.33056223,"ECCENTRICITY":0.0006562,"INCLINATION":97.2866,"RA_OF_ASC_NODE":186.8559,"ARG_OF_PERICENTER":54.0221,"MEAN_ANOMALY":306.162,"EPHEMERIS_TYPE":0,"CLASSIFICATION_TYPE":"U","NORAD_CAT_ID":46272,"ELEMENT_SET_NO":999,"REV_AT_EPOCH":14709,"BSTAR":0.00074892,"MEAN_MOTION_DOT":0.000239,"MEAN_MOTION_DDOT":0},{"OBJECT_NAME":"NEMO-HD","OBJECT_ID":"2020-061F","EPOCH":"2023-04-27T01:14:29.344128","MEAN_MOTION":15.20288156,"ECCENTRICITY":0.0002935,"INCLINATION":97.3497,"RA_OF_ASC_NODE":184.9557,"ARG_OF_PERICENTER":134.4581,"MEAN_ANOMALY":319.3729,"EPHEMERIS_TYPE":0,"CLASSIFICATION_TYPE":"U","NORAD_CAT_ID":46277,"ELEMENT_SET_NO":999,"REV_AT_EPOCH":14645,"BSTAR":0.00024559,"MEAN_MOTION_DOT":5.268e-5,"MEAN_MOTION_DDOT":0},{"OBJECT_NAME":"NUSAT-11 (CORA)","OBJECT_ID":"2020-079C","EPOCH":"2023-04-27T01:18:22.290624","MEAN_MOTION":15.59554345,"ECCENTRICITY":0.0005408,"INCLINATION":97.1439,"RA_OF_ASC_NODE":188.0928,"ARG_OF_PERICENTER":219.4477,"MEAN_ANOMALY":225.4756,"EPHEMERIS_TYPE":0,"CLASSIFICATION_TYPE":"U","NORAD_CAT_ID":46829,"ELEMENT_SET_NO":999,"REV_AT_EPOCH":13855,"BSTAR":0.00085267,"MEAN_MOTION_DOT":0.00068103,"MEAN_MOTION_DDOT":0},{"OBJECT_NAME":"NUSAT-15 (KATHERINE)","OBJECT_ID":"2020-079D","EPOCH":"2023-04-27T01:53:21.009696","MEAN_MOTION":15.59124179,"ECCENTRICITY":0.0004272,"INCLINATION":97.1577,"RA_OF_ASC_NODE":189.8313,"ARG_OF_PERICENTER":205.3524,"MEAN_ANOMALY":238.9508,"EPHEMERIS_TYPE":0,"CLASSIFICATION_TYPE":"U","NORAD_CAT_ID":46830,"ELEMENT_SET_NO":999,"REV_AT_EPOCH":13856,"BSTAR":0.00084546,"MEAN_MOTION_DOT":0.00066408,"MEAN_MOTION_DDOT":0},{"OBJECT_NAME":"NUSAT-14 (HEDY)","OBJECT_ID":"2020-079E","EPOCH":"2023-04-27T03:41:47.513760","MEAN_MOTION":15.60983231,"ECCENTRICITY":0.0006162,"INCLINATION":97.1527,"RA_OF_ASC_NODE":190.0568,"ARG_OF_PERICENTER":211.9448,"MEAN_ANOMALY":231.8389,"EPHEMERIS_TYPE":0,"CLASSIFICATION_TYPE":"U","NORAD_CAT_ID":46831,"ELEMENT_SET_NO":999,"REV_AT_EPOCH":13861,"BSTAR":0.00083222,"MEAN_MOTION_DOT":0.00070215,"MEAN_MOTION_DDOT":0},{"OBJECT_NAME":"NUSAT-10 (CAROLINE)","OBJECT_ID":"2020-079F","EPOCH":"2023-04-27T04:32:33.340128","MEAN_MOTION":15.5596234,"ECCENTRICITY":0.0004479,"INCLINATION":97.1572,"RA_OF_ASC_NODE":189.0185,"ARG_OF_PERICENTER":220.7586,"MEAN_ANOMALY":193.6459,"EPHEMERIS_TYPE":0,"CLASSIFICATION_TYPE":"U","NORAD_CAT_ID":46832,"ELEMENT_SET_NO":999,"REV_AT_EPOCH":13854,"BSTAR":0.00046037,"MEAN_MOTION_DOT":0.00031963,"MEAN_MOTION_DDOT":0},{"OBJECT_NAME":"NUSAT-17 (MARY)","OBJECT_ID":"2020-079J","EPOCH":"2023-04-27T03:56:30.768864","MEAN_MOTION":15.56294483,"ECCENTRICITY":0.0004711,"INCLINATION":97.1559,"RA_OF_ASC_NODE":188.554,"ARG_OF_PERICENTER":240.6316,"MEAN_ANOMALY":203.3891,"EPHEMERIS_TYPE":0,"CLASSIFICATION_TYPE":"U","NORAD_CAT_ID":46835,"ELEMENT_SET_NO":999,"REV_AT_EPOCH":13851,"BSTAR":0.0007566,"MEAN_MOTION_DOT":0.00053383,"MEAN_MOTION_DDOT":0},{"OBJECT_NAME":"NUSAT-18 (VERA)","OBJECT_ID":"2020-079K","EPOCH":"2023-04-26T22:29:55.374144","MEAN_MOTION":15.57824672,"ECCENTRICITY":0.0005525,"INCLINATION":97.1553,"RA_OF_ASC_NODE":189.11,"ARG_OF_PERICENTER":246.9589,"MEAN_ANOMALY":222.8587,"EPHEMERIS_TYPE":0,"CLASSIFICATION_TYPE":"U","NORAD_CAT_ID":46836,"ELEMENT_SET_NO":999,"REV_AT_EPOCH":13852,"BSTAR":0.00085828,"MEAN_MOTION_DOT":0.00064208,"MEAN_MOTION_DDOT":0},{"OBJECT_NAME":"NUSAT-16 (LISE)","OBJECT_ID":"2020-079P","EPOCH":"2023-04-27T02:30:58.406688","MEAN_MOTION":15.58824658,"ECCENTRICITY":0.0003537,"INCLINATION":97.1605,"RA_OF_ASC_NODE":189.6826,"ARG_OF_PERICENTER":230.4759,"MEAN_ANOMALY":217.2396,"EPHEMERIS_TYPE":0,"CLASSIFICATION_TYPE":"U","NORAD_CAT_ID":46840,"ELEMENT_SET_NO":999,"REV_AT_EPOCH":13855,"BSTAR":0.00083635,"MEAN_MOTION_DOT":0.00064935,"MEAN_MOTION_DDOT":0},{"OBJECT_NAME":"SENTINEL-6","OBJECT_ID":"2020-086A","EPOCH":"2023-04-26T16:21:26.293248","MEAN_MOTION":12.80930847,"ECCENTRICITY":0.0008054,"INCLINATION":66.0478,"RA_OF_ASC_NODE":358.4446,"ARG_OF_PERICENTER":263.6776,"MEAN_ANOMALY":96.3327,"EPHEMERIS_TYPE":0,"CLASSIFICATION_TYPE":"U","NORAD_CAT_ID":46984,"ELEMENT_SET_NO":999,"REV_AT_EPOCH":11348,"BSTAR":0,"MEAN_MOTION_DOT":-6.1e-7,"MEAN_MOTION_DDOT":0},{"OBJECT_NAME":"GAOFEN 12-2","OBJECT_ID":"2021-026A","EPOCH":"2023-04-26T19:05:59.057952","MEAN_MOTION":14.80598209,"ECCENTRICITY":0.0001564,"INCLINATION":97.9216,"RA_OF_ASC_NODE":107.8388,"ARG_OF_PERICENTER":88.0704,"MEAN_ANOMALY":272.0696,"EPHEMERIS_TYPE":0,"CLASSIFICATION_TYPE":"U","NORAD_CAT_ID":48079,"ELEMENT_SET_NO":999,"REV_AT_EPOCH":11198,"BSTAR":0.00016908,"MEAN_MOTION_DOT":1.245e-5,"MEAN_MOTION_DDOT":0}]
